{
  "type": "FeatureCollection",
  "features": [
    {
      "type": "Feature",
      "properties": {
        "norad_id": 43057,
        "name": "GSAT0217 (GALILEO 21)",
        "group": "gnss",
        "lat": -34.31986324819864,
        "lon": -162.06632941594242,
        "alt_km": 23219.801243109945,
        "timestamp": "2025-12-23T11:34:48.410390+00:00",
        "meta_object_name": "GSAT0217 (GALILEO 21)",
        "meta_object_id": "2017-079C",
        "meta_epoch": "2025-12-21T04:57:56.651616",
        "meta_mean_motion": 1.70474014,
        "meta_eccentricity": 0.00027256,
        "meta_inclination": 55.1257,
        "meta_ra_of_asc_node": 226.4024,
        "meta_arg_of_pericenter": 351.227,
        "meta_mean_anomaly": 8.8769,
        "meta_ephemeris_type": 0,
        "meta_classification_type": "U",
        "meta_norad_cat_id": 43057,
        "meta_element_set_no": 999,
        "meta_rev_at_epoch": 4995,
        "meta_bstar": 0,
        "meta_mean_motion_dot": 7.3e-07,
        "meta_mean_motion_ddot": 0,
        "tle_line1": "1 43057U 17079C   25355.20690569  .00000073  00000+0  00000+0 0  9998",
        "tle_line2": "2 43057  55.1257 226.4024 0002725 351.2270   8.8769  1.70474014 49955"
      },
      "geometry": {
        "type": "Point",
        "coordinates": [
          -162.06632941594242,
          -34.31986324819864
        ]
      }
    },
    {
      "type": "Feature",
      "properties": {
        "norad_id": 43058,
        "name": "GSAT0218 (GALILEO 22)",
        "group": "gnss",
        "lat": -1.2749998549541222,
        "lon": 47.24270420627964,
        "alt_km": 23227.5810712457,
        "timestamp": "2025-12-23T11:34:48.410400+00:00",
        "meta_object_name": "GSAT0218 (GALILEO 22)",
        "meta_object_id": "2017-079D",
        "meta_epoch": "2025-12-22T00:19:29.615808",
        "meta_mean_motion": 1.70473914,
        "meta_eccentricity": 0.00024164,
        "meta_inclination": 55.1256,
        "meta_ra_of_asc_node": 226.3779,
        "meta_arg_of_pericenter": 315.4078,
        "meta_mean_anomaly": 44.6792,
        "meta_ephemeris_type": 0,
        "meta_classification_type": "U",
        "meta_norad_cat_id": 43058,
        "meta_element_set_no": 999,
        "meta_rev_at_epoch": 4999,
        "meta_bstar": 0,
        "meta_mean_motion_dot": 7.3e-07,
        "meta_mean_motion_ddot": 0,
        "tle_line1": "1 43058U 17079D   25356.01353722  .00000073  00000+0  00000+0 0  9996",
        "tle_line2": "2 43058  55.1256 226.3779 0002416 315.4078  44.6792  1.70473914 49992"
      },
      "geometry": {
        "type": "Point",
        "coordinates": [
          47.24270420627964,
          -1.2749998549541222
        ]
      }
    },
    {
      "type": "Feature",
      "properties": {
        "norad_id": 43107,
        "name": "BEIDOU-3 M7 (C27)",
        "group": "gnss",
        "lat": 8.585781781565897,
        "lon": 122.23895047868164,
        "alt_km": 21528.81741950629,
        "timestamp": "2025-12-23T11:34:48.410409+00:00",
        "meta_object_name": "BEIDOU-3 M7 (C27)",
        "meta_object_id": "2018-003A",
        "meta_epoch": "2025-12-22T03:44:43.463904",
        "meta_mean_motion": 1.86232634,
        "meta_eccentricity": 0.00029638,
        "meta_inclination": 54.4883,
        "meta_ra_of_asc_node": 308.4878,
        "meta_arg_of_pericenter": 66.6968,
        "meta_mean_anomaly": 293.333,
        "meta_ephemeris_type": 0,
        "meta_classification_type": "U",
        "meta_norad_cat_id": 43107,
        "meta_element_set_no": 999,
        "meta_rev_at_epoch": 5405,
        "meta_bstar": 0,
        "meta_mean_motion_dot": -5.9e-07,
        "meta_mean_motion_ddot": 0,
        "tle_line1": "1 43107U 18003A   25356.15605861 -.00000059  00000+0  00000+0 0  9993",
        "tle_line2": "2 43107  54.4883 308.4878 0002963  66.6968 293.3330  1.86232634 54050"
      },
      "geometry": {
        "type": "Point",
        "coordinates": [
          122.23895047868164,
          8.585781781565897
        ]
      }
    },
    {
      "type": "Feature",
      "properties": {
        "norad_id": 43108,
        "name": "BEIDOU-3 M8 (C28)",
        "group": "gnss",
        "lat": -21.022280339605164,
        "lon": 144.31909836297018,
        "alt_km": 21527.03761665598,
        "timestamp": "2025-12-23T11:34:48.410421+00:00",
        "meta_object_name": "BEIDOU-3 M8 (C28)",
        "meta_object_id": "2018-003B",
        "meta_epoch": "2025-12-22T02:25:29.511264",
        "meta_mean_motion": 1.86231112,
        "meta_eccentricity": 0.00045888,
        "meta_inclination": 54.4814,
        "meta_ra_of_asc_node": 308.4721,
        "meta_arg_of_pericenter": 278.5126,
        "meta_mean_anomaly": 81.4339,
        "meta_ephemeris_type": 0,
        "meta_classification_type": "U",
        "meta_norad_cat_id": 43108,
        "meta_element_set_no": 999,
        "meta_rev_at_epoch": 5406,
        "meta_bstar": 0,
        "meta_mean_motion_dot": -6e-07,
        "meta_mean_motion_ddot": 0,
        "tle_line1": "1 43108U 18003B   25356.10103601 -.00000060  00000+0  00000+0 0  9996",
        "tle_line2": "2 43108  54.4814 308.4721 0004588 278.5126  81.4339  1.86231112 54063"
      },
      "geometry": {
        "type": "Point",
        "coordinates": [
          144.31909836297018,
          -21.022280339605164
        ]
      }
    },
    {
      "type": "Feature",
      "properties": {
        "norad_id": 43207,
        "name": "BEIDOU-3 M4 (C22)",
        "group": "gnss",
        "lat": -56.51279846293946,
        "lon": -21.33791675558386,
        "alt_km": 21534.81635967069,
        "timestamp": "2025-12-23T11:34:48.410433+00:00",
        "meta_object_name": "BEIDOU-3 M4 (C22)",
        "meta_object_id": "2018-018A",
        "meta_epoch": "2025-12-22T00:08:46.770432",
        "meta_mean_motion": 1.86231216,
        "meta_eccentricity": 0.00041705,
        "meta_inclination": 56.4932,
        "meta_ra_of_asc_node": 68.9979,
        "meta_arg_of_pericenter": 3.572,
        "meta_mean_anomaly": 356.4799,
        "meta_ephemeris_type": 0,
        "meta_classification_type": "U",
        "meta_norad_cat_id": 43207,
        "meta_element_set_no": 999,
        "meta_rev_at_epoch": 5344,
        "meta_bstar": 0,
        "meta_mean_motion_dot": -3.1e-07,
        "meta_mean_motion_ddot": 0,
        "tle_line1": "1 43207U 18018A   25356.00609688 -.00000031  00000+0  00000+0 0  9995",
        "tle_line2": "2 43207  56.4932  68.9979 0004170   3.5720 356.4799  1.86231216 53443"
      },
      "geometry": {
        "type": "Point",
        "coordinates": [
          -21.33791675558386,
          -56.51279846293946
        ]
      }
    },
    {
      "type": "Feature",
      "properties": {
        "norad_id": 43208,
        "name": "BEIDOU-3 M3 (C21)",
        "group": "gnss",
        "lat": -36.26029350427568,
        "lon": -81.99783345595075,
        "alt_km": 21532.010310708545,
        "timestamp": "2025-12-23T11:34:48.410443+00:00",
        "meta_object_name": "BEIDOU-3 M3 (C21)",
        "meta_object_id": "2018-018B",
        "meta_epoch": "2025-12-22T14:37:45.965856",
        "meta_mean_motion": 1.86231405,
        "meta_eccentricity": 0.0007052,
        "meta_inclination": 56.4931,
        "meta_ra_of_asc_node": 68.9821,
        "meta_arg_of_pericenter": 313.7983,
        "meta_mean_anomaly": 46.1946,
        "meta_ephemeris_type": 0,
        "meta_classification_type": "U",
        "meta_norad_cat_id": 43208,
        "meta_element_set_no": 999,
        "meta_rev_at_epoch": 5345,
        "meta_bstar": 0,
        "meta_mean_motion_dot": -2.7e-07,
        "meta_mean_motion_ddot": 0,
        "tle_line1": "1 43208U 18018B   25356.60955979 -.00000027  00000+0  00000+0 0  9994",
        "tle_line2": "2 43208  56.4931  68.9821 0007052 313.7983  46.1946  1.86231405 53456"
      },
      "geometry": {
        "type": "Point",
        "coordinates": [
          -81.99783345595075,
          -36.26029350427568
        ]
      }
    },
    {
      "type": "Feature",
      "properties": {
        "norad_id": 43245,
        "name": "BEIDOU-3 M9 (C29)",
        "group": "gnss",
        "lat": 53.23563270893959,
        "lon": 19.679691512170738,
        "alt_km": 21525.794803745095,
        "timestamp": "2025-12-23T11:34:48.410453+00:00",
        "meta_object_name": "BEIDOU-3 M9 (C29)",
        "meta_object_id": "2018-029A",
        "meta_epoch": "2025-12-21T18:02:44.382048",
        "meta_mean_motion": 1.8622836,
        "meta_eccentricity": 0.00015407,
        "meta_inclination": 54.3576,
        "meta_ra_of_asc_node": 306.1541,
        "meta_arg_of_pericenter": 290.4225,
        "meta_mean_anomaly": 69.56,
        "meta_ephemeris_type": 0,
        "meta_classification_type": "U",
        "meta_norad_cat_id": 43245,
        "meta_element_set_no": 999,
        "meta_rev_at_epoch": 5259,
        "meta_bstar": 0,
        "meta_mean_motion_dot": -5.9e-07,
        "meta_mean_motion_ddot": 0,
        "tle_line1": "1 43245U 18029A   25355.75190257 -.00000059  00000+0  00000+0 0  9997",
        "tle_line2": "2 43245  54.3576 306.1541 0001540 290.4225  69.5600  1.86228360 52597"
      },
      "geometry": {
        "type": "Point",
        "coordinates": [
          19.679691512170738,
          53.23563270893959
        ]
      }
    }
  ]
}